[{"OBJECT_NAME":"STARLINK-30797","OBJECT_ID":"2023-166E","EPOCH":"2026-03-09T16:32:19.825440","MEAN_MOTION":15.30192386,"ECCENTRICITY":0.00011013,"INCLINATION":53.1598,"RA_OF_ASC_NODE":219.781,"ARG_OF_PERICENTER":92.5187,"MEAN_ANOMALY":267.594,"EPHEMERIS_TYPE":0,"CLASSIFICATION_TYPE":"U","NORAD_CAT_ID":58154,"ELEMENT_SET_NO":999,"REV_AT_EPOCH":13302,"BSTAR":1.8569429e-5,"MEAN_MOTION_DOT":1.91e-6,"MEAN_MOTION_DDOT":0},{"OBJECT_NAME":"GENMAT-1","OBJECT_ID":"2023-174W","EPOCH":"2026-03-09T18:03:23.351040","MEAN_MOTION":15.32594666,"ECCENTRICITY":0.00074416,"INCLINATION":97.3728,"RA_OF_ASC_NODE":146.8236,"ARG_OF_PERICENTER":169.2515,"MEAN_ANOMALY":190.8888,"EPHEMERIS_TYPE":0,"CLASSIFICATION_TYPE":"U","NORAD_CAT_ID":58276,"ELEMENT_SET_NO":999,"REV_AT_EPOCH":12973,"BSTAR":0.00042157222,"MEAN_MOTION_DOT":0.0001321,"MEAN_MOTION_DDOT":0}]
